[{"OBJECT_NAME":"OBJECT P","OBJECT_ID":"2023-091P","EPOCH":"2026-03-09T22:51:54.228672","MEAN_MOTION":15.15656196,"ECCENTRICITY":0.00167439,"INCLINATION":97.5224,"RA_OF_ASC_NODE":125.9166,"ARG_OF_PERICENTER":108.1275,"MEAN_ANOMALY":252.1782,"EPHEMERIS_TYPE":0,"CLASSIFICATION_TYPE":"U","NORAD_CAT_ID":57179,"ELEMENT_SET_NO":999,"REV_AT_EPOCH":14875,"BSTAR":0.00031146845,"MEAN_MOTION_DOT":5.878e-5,"MEAN_MOTION_DDOT":0},{"OBJECT_NAME":"IRIDE FM6","OBJECT_ID":"2025-276AL","EPOCH":"2026-03-09T18:13:54.633504","MEAN_MOTION":15.19819597,"ECCENTRICITY":5.407e-5,"INCLINATION":97.4286,"RA_OF_ASC_NODE":144.1581,"ARG_OF_PERICENTER":341.8424,"MEAN_ANOMALY":18.2792,"EPHEMERIS_TYPE":0,"CLASSIFICATION_TYPE":"U","NORAD_CAT_ID":66700,"ELEMENT_SET_NO":999,"REV_AT_EPOCH":1533,"BSTAR":0.00050046454,"MEAN_MOTION_DOT":0.00010662,"MEAN_MOTION_DDOT":0}]
